start=new Date('2021-11-07T00:00:00.000Z').valueOf();
sats=[{"NORAD_CAT_ID":"45408","RCS_SIZE":"LARGE","GP_ID":"189105597","INCLINATION":"53.0544","OBJECT_TYPE":"PAYLOAD","MEAN_MOTION":"15.06375914","REV_AT_EPOCH":"9071","COUNTRY_CODE":"US","FILE":"3205953","PERIAPSIS":"546.268","MEAN_ELEMENT_THEORY":"SGP4","EPHEMERIS_TYPE":"0","RA_OF_ASC_NODE":"77.1116","CENTER_NAME":"EARTH","MEAN_MOTION_DOT":"-0.00001653","TLE_LINE2":"2 45408  53.0544  77.1116 0001472  82.0322 278.0834 15.06375914 90718","BSTAR":"-0.00009213800000","OBJECT_NAME":"STARLINK-1278","ELEMENT_SET_NO":"999","SEMIMAJOR_AXIS":"6925.422","CLASSIFICATION_TYPE":"U","ARG_OF_PERICENTER":"82.0322","TIME_SYSTEM":"UTC","EPOCH":"2021-11-06T18:29:07.192896","SITE":"AFETR","APOAPSIS":"548.307","TLE_LINE1":"1 45408U 20019BA  21310.77022214 -.00001653  00000-0 -92138-4 0  9999","ECCENTRICITY":"0.00014720","OBJECT_ID":"2020-019BA","MEAN_MOTION_DDOT":"0.0000000000000","MEAN_ANOMALY":"278.0834","DECAY_DATE":null,"PERIOD":"95.594","LAUNCH_DATE":"2020-03-18","REF_FRAME":"TEME"},{"APOAPSIS":"548.418","TLE_LINE1":"1 45409U 20019BB  21310.76560236 -.00018267  00000-0 -12122-2 0  9992","ECCENTRICITY":"0.00015200","TIME_SYSTEM":"UTC","EPOCH":"2021-11-06T18:22:28.043904","SITE":"AFETR","CLASSIFICATION_TYPE":"U","ARG_OF_PERICENTER":"94.3643","MEAN_ANOMALY":"265.7519","DECAY_DATE":null,"LAUNCH_DATE":"2020-03-18","REF_FRAME":"TEME","PERIOD":"95.595","MEAN_MOTION_DDOT":"0.0000000000000","OBJECT_ID":"2020-019BB","MEAN_MOTION":"15.06350389","INCLINATION":"53.0562","OBJECT_TYPE":"PAYLOAD","RCS_SIZE":"LARGE","NORAD_CAT_ID":"45409","GP_ID":"189105171","OBJECT_NAME":"STARLINK-1282","SEMIMAJOR_AXIS":"6925.501","ELEMENT_SET_NO":"999","BSTAR":"-0.00121220000000","EPHEMERIS_TYPE":"0","RA_OF_ASC_NODE":"47.1394","CENTER_NAME":"EARTH","MEAN_MOTION_DOT":"-0.00018267","TLE_LINE2":"2 45409  53.0562  47.1394 0001520  94.3643 265.7519 15.06350389 91139","COUNTRY_CODE":"US","REV_AT_EPOCH":"9113","FILE":"3205954","PERIAPSIS":"546.313","MEAN_ELEMENT_THEORY":"SGP4"},{"NORAD_CAT_ID":"45410","RCS_SIZE":"LARGE","GP_ID":"189105173","MEAN_MOTION":"15.71352036","INCLINATION":"53.0567","OBJECT_TYPE":"PAYLOAD","EPHEMERIS_TYPE":"0","RA_OF_ASC_NODE":"349.7711","MEAN_MOTION_DOT":"-0.00041366","TLE_LINE2":"2 45410  53.0567 349.7711 0004267   8.5796 351.5293 15.71352036 91908","CENTER_NAME":"EARTH","FILE":"3205954","COUNTRY_CODE":"US","REV_AT_EPOCH":"9190","MEAN_ELEMENT_THEORY":"SGP4","PERIAPSIS":"352.161","SEMIMAJOR_AXIS":"6733.169","ELEMENT_SET_NO":"999","OBJECT_NAME":"STARLINK-1285","BSTAR":"-0.00031546000000","ARG_OF_PERICENTER":"8.5796","CLASSIFICATION_TYPE":"U","APOAPSIS":"357.907","ECCENTRICITY":"0.00042670","TLE_LINE1":"1 45410U 20019BC  21310.58364197 -.00041366  00000-0 -31546-3 0  9990","TIME_SYSTEM":"UTC","EPOCH":"2021-11-06T14:00:26.666208","SITE":"AFETR","MEAN_MOTION_DDOT":"0.0000000000000","OBJECT_ID":"2020-019BC","DECAY_DATE":null,"LAUNCH_DATE":"2020-03-18","REF_FRAME":"TEME","PERIOD":"91.641","MEAN_ANOMALY":"351.5293"},{"EPOCH":"2021-11-06T18:43:41.219616","TIME_SYSTEM":"UTC","SITE":"AFETR","APOAPSIS":"548.066","TLE_LINE1":"1 45411U 20019BD  21310.78033819  .00001373  00000-0  11101-3 0  9994","ECCENTRICITY":"0.00012430","CLASSIFICATION_TYPE":"U","ARG_OF_PERICENTER":"81.9163","MEAN_ANOMALY":"278.1967","DECAY_DATE":null,"PERIOD":"95.592","LAUNCH_DATE":"2020-03-18","REF_FRAME":"TEME","OBJECT_ID":"2020-019BD","MEAN_MOTION_DDOT":"0.0000000000000","INCLINATION":"53.0554","OBJECT_TYPE":"PAYLOAD","MEAN_MOTION":"15.06402890","NORAD_CAT_ID":"45411","RCS_SIZE":"LARGE","GP_ID":"189105195","BSTAR":"0.00011101000000","OBJECT_NAME":"STARLINK-1293","SEMIMAJOR_AXIS":"6925.340","ELEMENT_SET_NO":"999","REV_AT_EPOCH":"9113","COUNTRY_CODE":"US","FILE":"3205956","PERIAPSIS":"546.344","MEAN_ELEMENT_THEORY":"SGP4","RA_OF_ASC_NODE":"47.0600","EPHEMERIS_TYPE":"0","CENTER_NAME":"EARTH","TLE_LINE2":"2 45411  53.0554  47.0600 0001243  81.9163 278.1967 15.06402890 91133","MEAN_MOTION_DOT":"0.00001373"},{"MEAN_MOTION":"15.06356197","INCLINATION":"53.0555","OBJECT_TYPE":"PAYLOAD","NORAD_CAT_ID":"45412","RCS_SIZE":"LARGE","GP_ID":"189105217","OBJECT_NAME":"STARLINK-1296","SEMIMAJOR_AXIS":"6925.483","ELEMENT_SET_NO":"999","BSTAR":"-0.00066833000000","RA_OF_ASC_NODE":"47.5185","EPHEMERIS_TYPE":"0","CENTER_NAME":"EARTH","TLE_LINE2":"2 45412  53.0555  47.5185 0001306  74.3393 285.7740 15.06356197 91118","MEAN_MOTION_DOT":"-0.00010210","COUNTRY_CODE":"US","REV_AT_EPOCH":"9111","FILE":"3205957","PERIAPSIS":"546.443","MEAN_ELEMENT_THEORY":"SGP4","APOAPSIS":"548.252","TLE_LINE1":"1 45412U 20019BE  21310.68083328 -.00010210  00000-0 -66833-3 0  9998","ECCENTRICITY":"0.00013060","EPOCH":"2021-11-06T16:20:23.995392","TIME_SYSTEM":"UTC","SITE":"AFETR","ARG_OF_PERICENTER":"74.3393","CLASSIFICATION_TYPE":"U","MEAN_ANOMALY":"285.7740","DECAY_DATE":null,"LAUNCH_DATE":"2020-03-18","PERIOD":"95.595","REF_FRAME":"TEME","MEAN_MOTION_DDOT":"0.0000000000000","OBJECT_ID":"2020-019BE"},{"RCS_SIZE":"LARGE","NORAD_CAT_ID":"45413","GP_ID":"189105206","MEAN_MOTION":"15.06366231","INCLINATION":"53.0540","OBJECT_TYPE":"PAYLOAD","RA_OF_ASC_NODE":"47.0929","EPHEMERIS_TYPE":"0","CENTER_NAME":"EARTH","TLE_LINE2":"2 45413  53.0540  47.0929 0001209  77.5548 282.5577 15.06366231 91228","MEAN_MOTION_DOT":"-0.00010386","COUNTRY_CODE":"US","REV_AT_EPOCH":"9122","FILE":"3205988","PERIAPSIS":"546.480","MEAN_ELEMENT_THEORY":"SGP4","OBJECT_NAME":"STARLINK-1298","SEMIMAJOR_AXIS":"6925.452","ELEMENT_SET_NO":"999","BSTAR":"-0.00068002000000","ARG_OF_PERICENTER":"77.5548","CLASSIFICATION_TYPE":"U","APOAPSIS":"548.154","TLE_LINE1":"1 45413U 20019BF  21310.77666890 -.00010386  00000-0 -68002-3 0  9994","ECCENTRICITY":"0.00012090","EPOCH":"2021-11-06T18:38:24.192960","TIME_SYSTEM":"UTC","SITE":"AFETR","MEAN_MOTION_DDOT":"0.0000000000000","OBJECT_ID":"2020-019BF","MEAN_ANOMALY":"282.5577","DECAY_DATE":null,"REF_FRAME":"TEME","LAUNCH_DATE":"2020-03-18","PERIOD":"95.594"},{"MEAN_MOTION":"15.06355740","INCLINATION":"53.0559","OBJECT_TYPE":"PAYLOAD","NORAD_CAT_ID":"45414","RCS_SIZE":"LARGE","GP_ID":"189105698","OBJECT_NAME":"STARLINK-1309","SEMIMAJOR_AXIS":"6925.484","ELEMENT_SET_NO":"999","BSTAR":"-0.00126520000000","RA_OF_ASC_NODE":"47.4559","EPHEMERIS_TYPE":"0","CENTER_NAME":"EARTH","MEAN_MOTION_DOT":"-0.00019054","TLE_LINE2":"2 45414  53.0559  47.4559 0001359  79.4176 280.6966 15.06355740 91129","REV_AT_EPOCH":"9112","COUNTRY_CODE":"US","FILE":"3205959","PERIAPSIS":"546.408","MEAN_ELEMENT_THEORY":"SGP4","APOAPSIS":"548.290","TLE_LINE1":"1 45414U 20019BG  21310.69556770 -.00019054  00000-0 -12652-2 0  9991","ECCENTRICITY":"0.00013590","EPOCH":"2021-11-06T16:41:37.049280","TIME_SYSTEM":"UTC","SITE":"AFETR","ARG_OF_PERICENTER":"79.4176","CLASSIFICATION_TYPE":"U","MEAN_ANOMALY":"280.6966","LAUNCH_DATE":"2020-03-18","DECAY_DATE":null,"PERIOD":"95.595","REF_FRAME":"TEME","MEAN_MOTION_DDOT":"0.0000000000000","OBJECT_ID":"2020-019BG"},{"TIME_SYSTEM":"UTC","EPOCH":"2021-11-06T12:32:09.248928","SITE":"AFETR","APOAPSIS":"548.211","ECCENTRICITY":"0.00014460","TLE_LINE1":"1 45415U 20019BH  21310.52232927  .00003240  00000-0  23632-3 0  9998","CLASSIFICATION_TYPE":"U","ARG_OF_PERICENTER":"77.0183","DECAY_DATE":null,"PERIOD":"95.592","LAUNCH_DATE":"2020-03-18","REF_FRAME":"TEME","MEAN_ANOMALY":"283.0968","OBJECT_ID":"2020-019BH","MEAN_MOTION_DDOT":"0.0000000000000","INCLINATION":"53.0532","OBJECT_TYPE":"PAYLOAD","MEAN_MOTION":"15.06401433","NORAD_CAT_ID":"45415","RCS_SIZE":"LARGE","GP_ID":"189129149","BSTAR":"0.00023632000000","ELEMENT_SET_NO":"999","SEMIMAJOR_AXIS":"6925.344","OBJECT_NAME":"STARLINK-1316","FILE":"3206165","COUNTRY_CODE":"US","REV_AT_EPOCH":"9111","MEAN_ELEMENT_THEORY":"SGP4","PERIAPSIS":"546.208","EPHEMERIS_TYPE":"0","RA_OF_ASC_NODE":"48.2197","MEAN_MOTION_DOT":"0.00003240","TLE_LINE2":"2 45415  53.0532  48.2197 0001446  77.0183 283.0968 15.06401433 91116","CENTER_NAME":"EARTH"},{"BSTAR":"0.00016719000000","SEMIMAJOR_AXIS":"6925.353","ELEMENT_SET_NO":"999","OBJECT_NAME":"STARLINK-1318","MEAN_ELEMENT_THEORY":"SGP4","PERIAPSIS":"546.332","FILE":"3206165","COUNTRY_CODE":"US","REV_AT_EPOCH":"9110","MEAN_MOTION_DOT":"0.00002210","TLE_LINE2":"2 45416  53.0562  48.0805 0001280  78.6312 281.4821 15.06398518 91109","CENTER_NAME":"EARTH","RA_OF_ASC_NODE":"48.0805","EPHEMERIS_TYPE":"0","OBJECT_TYPE":"PAYLOAD","INCLINATION":"53.0562","MEAN_MOTION":"15.06398518","GP_ID":"189128397","NORAD_CAT_ID":"45416","RCS_SIZE":"LARGE","LAUNCH_DATE":"2020-03-18","DECAY_DATE":null,"REF_FRAME":"TEME","PERIOD":"95.592","MEAN_ANOMALY":"281.4821","OBJECT_ID":"2020-019BJ","MEAN_MOTION_DDOT":"0.0000000000000","SITE":"AFETR","TIME_SYSTEM":"UTC","EPOCH":"2021-11-06T13:19:55.162848","ECCENTRICITY":"0.00012800","TLE_LINE1":"1 45416U 20019BJ  21310.55549957  .00002210  00000-0  16719-3 0  9990","APOAPSIS":"548.105","CLASSIFICATION_TYPE":"U","ARG_OF_PERICENTER":"78.6312"},{"CLASSIFICATION_TYPE":"U","ARG_OF_PERICENTER":"91.4120","ECCENTRICITY":"0.00013130","TLE_LINE1":"1 45417U 20019BK  21310.75916927 -.00002198  00000-0 -12881-3 0  9991","APOAPSIS":"548.203","SITE":"AFETR","EPOCH":"2021-11-06T18:13:12.224928","TIME_SYSTEM":"UTC","MEAN_MOTION_DDOT":"0.0000000000000","OBJECT_ID":"2020-019BK","DECAY_DATE":null,"REF_FRAME":"TEME","LAUNCH_DATE":"2020-03-18","PERIOD":"95.594","MEAN_ANOMALY":"268.7020","GP_ID":"189099954","NORAD_CAT_ID":"45417","RCS_SIZE":"LARGE","MEAN_MOTION":"15.06373856","OBJECT_TYPE":"PAYLOAD","INCLINATION":"53.0559","MEAN_MOTION_DOT":"-0.00002198","TLE_LINE2":"2 45417  53.0559  77.1699 0001313  91.4120 268.7020 15.06373856 90990","CENTER_NAME":"EARTH","RA_OF_ASC_NODE":"77.1699","EPHEMERIS_TYPE":"0","MEAN_ELEMENT_THEORY":"SGP4","PERIAPSIS":"546.384","FILE":"3205757","COUNTRY_CODE":"US","REV_AT_EPOCH":"9099","ELEMENT_SET_NO":"999","SEMIMAJOR_AXIS":"6925.429","OBJECT_NAME":"STARLINK-1286","BSTAR":"-0.00012881000000"}];
